{
  "type": "FeatureCollection",
  "features": [
    {
      "type": "Feature",
      "properties": {
        "norad_id": 47062,
        "name": "COSMOS 2251 DEB",
        "group": "cosmos-2251-debris",
        "lat": -32.535623522117454,
        "lon": 79.15458173428543,
        "alt_km": 1070.2751231121156,
        "timestamp": "2025-12-05T18:53:13.680304+00:00",
        "meta_object_name": "COSMOS 2251 DEB",
        "meta_object_id": "1993-036BXS",
        "meta_epoch": "2025-12-04T01:57:13.752288",
        "meta_mean_motion": 13.7189048,
        "meta_eccentricity": 0.03234575,
        "meta_inclination": 74.0841,
        "meta_ra_of_asc_node": 92.4536,
        "meta_arg_of_pericenter": 219.9964,
        "meta_mean_anomaly": 322.3152,
        "meta_ephemeris_type": 0,
        "meta_classification_type": "U",
        "meta_norad_cat_id": 47062,
        "meta_element_set_no": 999,
        "meta_rev_at_epoch": 55483,
        "meta_bstar": 0.0040443248,
        "meta_mean_motion_dot": 5.303e-05,
        "meta_mean_motion_ddot": 0,
        "tle_line1": "1 47062U 93036BXS 25338.08140917  .00005303  00000+0  40443-2 0  9998",
        "tle_line2": "2 47062  74.0841  92.4536 0323457 219.9964 322.3152 13.71890480554832"
      },
      "geometry": {
        "type": "Point",
        "coordinates": [
          79.15458173428543,
          -32.535623522117454
        ]
      }
    },
    {
      "type": "Feature",
      "properties": {
        "norad_id": 47068,
        "name": "COSMOS 2251 DEB",
        "group": "cosmos-2251-debris",
        "lat": -29.582683379424935,
        "lon": 45.95957643476743,
        "alt_km": 721.771930568033,
        "timestamp": "2025-12-05T18:53:13.680314+00:00",
        "meta_object_name": "COSMOS 2251 DEB",
        "meta_object_id": "1993-036BXY",
        "meta_epoch": "2025-12-04T00:36:34.473600",
        "meta_mean_motion": 14.53053719,
        "meta_eccentricity": 0.00184817,
        "meta_inclination": 74.0246,
        "meta_ra_of_asc_node": 219.9256,
        "meta_arg_of_pericenter": 307.28,
        "meta_mean_anomaly": 52.6676,
        "meta_ephemeris_type": 0,
        "meta_classification_type": "U",
        "meta_norad_cat_id": 47068,
        "meta_element_set_no": 999,
        "meta_rev_at_epoch": 61630,
        "meta_bstar": 0.0018552371,
        "meta_mean_motion_dot": 7.662e-05,
        "meta_mean_motion_ddot": 0,
        "tle_line1": "1 47068U 93036BXY 25338.02539900  .00007662  00000+0  18552-2 0  9998",
        "tle_line2": "2 47068  74.0246 219.9256 0018481 307.2800  52.6676 14.53053719616302"
      },
      "geometry": {
        "type": "Point",
        "coordinates": [
          45.95957643476743,
          -29.582683379424935
        ]
      }
    },
    {
      "type": "Feature",
      "properties": {
        "norad_id": 47073,
        "name": "COSMOS 2251 DEB",
        "group": "cosmos-2251-debris",
        "lat": 34.57328919402517,
        "lon": 22.60108617509114,
        "alt_km": 913.5468510915462,
        "timestamp": "2025-12-05T18:53:13.680324+00:00",
        "meta_object_name": "COSMOS 2251 DEB",
        "meta_object_id": "1993-036BYD",
        "meta_epoch": "2025-11-28T23:48:38.837952",
        "meta_mean_motion": 14.04684181,
        "meta_eccentricity": 0.01626495,
        "meta_inclination": 74.0833,
        "meta_ra_of_asc_node": 225.7586,
        "meta_arg_of_pericenter": 267.1836,
        "meta_mean_anomaly": 91.0675,
        "meta_ephemeris_type": 0,
        "meta_classification_type": "U",
        "meta_norad_cat_id": 47073,
        "meta_element_set_no": 999,
        "meta_rev_at_epoch": 60168,
        "meta_bstar": 0.0003803633,
        "meta_mean_motion_dot": 6.6e-06,
        "meta_mean_motion_ddot": 0,
        "tle_line1": "1 47073U 93036BYD 25332.99211618  .00000660  00000+0  38036-3 0  9998",
        "tle_line2": "2 47073  74.0833 225.7586 0162649 267.1836  91.0675 14.04684181601680"
      },
      "geometry": {
        "type": "Point",
        "coordinates": [
          22.60108617509114,
          34.57328919402517
        ]
      }
    },
    {
      "type": "Feature",
      "properties": {
        "norad_id": 47074,
        "name": "COSMOS 2251 DEB",
        "group": "cosmos-2251-debris",
        "lat": -60.63495487747507,
        "lon": 171.8823950324879,
        "alt_km": 807.0941853142513,
        "timestamp": "2025-12-05T18:53:13.680334+00:00",
        "meta_object_name": "COSMOS 2251 DEB",
        "meta_object_id": "1993-036BYE",
        "meta_epoch": "2025-12-03T18:02:52.457856",
        "meta_mean_motion": 14.35498744,
        "meta_eccentricity": 0.01434773,
        "meta_inclination": 74.091,
        "meta_ra_of_asc_node": 325.1457,
        "meta_arg_of_pericenter": 355.2449,
        "meta_mean_anomaly": 179.085,
        "meta_ephemeris_type": 0,
        "meta_classification_type": "U",
        "meta_norad_cat_id": 47074,
        "meta_element_set_no": 999,
        "meta_rev_at_epoch": 2553,
        "meta_bstar": 0.0029812178,
        "meta_mean_motion_dot": 9.625e-05,
        "meta_mean_motion_ddot": 0,
        "tle_line1": "1 47074U 93036BYE 25337.75199604  .00009625  00000+0  29812-2 0  9999",
        "tle_line2": "2 47074  74.0910 325.1457 0143477 355.2449 179.0850 14.35498744 25534"
      },
      "geometry": {
        "type": "Point",
        "coordinates": [
          171.8823950324879,
          -60.63495487747507
        ]
      }
    },
    {
      "type": "Feature",
      "properties": {
        "norad_id": 47116,
        "name": "COSMOS 2251 DEB",
        "group": "cosmos-2251-debris",
        "lat": -25.9465853323934,
        "lon": -113.19132178070859,
        "alt_km": 564.948084315909,
        "timestamp": "2025-12-05T18:53:13.680344+00:00",
        "meta_object_name": "COSMOS 2251 DEB",
        "meta_object_id": "1993-036BYJ",
        "meta_epoch": "2025-11-28T02:40:22.126944",
        "meta_mean_motion": 14.97052334,
        "meta_eccentricity": 0.00224176,
        "meta_inclination": 74.0247,
        "meta_ra_of_asc_node": 270.3586,
        "meta_arg_of_pericenter": 5.4926,
        "meta_mean_anomaly": 12.2387,
        "meta_ephemeris_type": 0,
        "meta_classification_type": "U",
        "meta_norad_cat_id": 47116,
        "meta_element_set_no": 999,
        "meta_rev_at_epoch": 59292,
        "meta_bstar": 0.0024991708,
        "meta_mean_motion_dot": 0.00029033,
        "meta_mean_motion_ddot": 0,
        "tle_line1": "1 47116U 93036BYJ 25332.11136721  .00029033  00000+0  24992-2 0  9991",
        "tle_line2": "2 47116  74.0247 270.3586 0022417   5.4926  12.2387 14.97052334592926"
      },
      "geometry": {
        "type": "Point",
        "coordinates": [
          -113.19132178070859,
          -25.9465853323934
        ]
      }
    },
    {
      "type": "Feature",
      "properties": {
        "norad_id": 53093,
        "name": "COSMOS 2251 DEB",
        "group": "cosmos-2251-debris",
        "lat": 55.04532416979489,
        "lon": 110.1687599468496,
        "alt_km": 746.4903296493494,
        "timestamp": "2025-12-05T18:53:13.680354+00:00",
        "meta_object_name": "COSMOS 2251 DEB",
        "meta_object_id": "1993-036BYP",
        "meta_epoch": "2025-12-05T00:00:34.965216",
        "meta_mean_motion": 14.41807999,
        "meta_eccentricity": 0.00187311,
        "meta_inclination": 74.0363,
        "meta_ra_of_asc_node": 315.7986,
        "meta_arg_of_pericenter": 34.8264,
        "meta_mean_anomaly": 325.4114,
        "meta_ephemeris_type": 0,
        "meta_classification_type": "U",
        "meta_norad_cat_id": 53093,
        "meta_element_set_no": 999,
        "meta_rev_at_epoch": 17614,
        "meta_bstar": 0.0018645558,
        "meta_mean_motion_dot": 6.085e-05,
        "meta_mean_motion_ddot": 0,
        "tle_line1": "1 53093U 93036BYP 25339.00040469  .00006085  00000+0  18646-2 0  9991",
        "tle_line2": "2 53093  74.0363 315.7986 0018731  34.8264 325.4114 14.41807999176142"
      },
      "geometry": {
        "type": "Point",
        "coordinates": [
          110.1687599468496,
          55.04532416979489
        ]
      }
    }
  ]
}